{"type": "FeatureCollection", "features": [{"type": "Feature", "properties": {"name": "Karakalpakstan Boundary Sample"}, "geometry": {"type": "Polygon", "coordinates": [[[
              62.028320515327, 
              43.48092238200112
            ], 
            [
              62.13520507655973, 
              43.34774190979812
            ], 
            [
              62.18533129885111, 
              43.31394575371469
            ], 
            [
              62.45580573877345, 
              43.259272070423364
            ], 
            [
              62.470998556766936, 
              43.25276069144137
            ], 
            [
              62.470843533741906, 
              43.24276132227578
            ], 
            [
              62.46541747808942, 
              43.23121155266614
            ], 
            [
              62.19308274182162, 
              42.85505897637853
            ], 
            [
              61.93671595671004, 
              42.49218705662321
            ], 
            [
              61.88162888125787, 
              42.39689572050995
            ], 
            [
              61.859149610311846, 
              42.18931142521728
            ], 
            [
              61.85914960245422, 
              42.177012412560245
            ], 
            [
              61.86209517167695, 
              42.167426470091286
            ], 
            [
              61.976145070896216, 
              42.01118281554768
            ], 
            [
              61.99588545493448, 
              41.980021889932196
            ], 
            [
              61.99169968146282, 
              41.974647592732815
            ], 
            [
              61.97971070629782, 
              41.96513900038657
            ], 
            [
              61.764840131985835, 
              41.87473117570813
            ], 
            [
              61.74308433519559, 
              41.86101102846295
            ], 
            [
              61.74370445028949, 
              41.84778185164886
            ], 
            [
              61.75161093482682, 
              41.83419092247062
            ], 
            [
              62.180370330102186, 
              41.39230586100294
            ], 
            [
              62.464642369070084, 
              41.09467540420728
            ], 
            [
              62.46541750318848, 
              41.08095527346001
            ], 
            [
              62.23948815349275, 
              40.9989706520056
            ], 
            [
              62.18672652689886, 
              40.98587070483437
            ], 
            [
              62.17168867921479, 
              40.98964306970373
            ], 
            [
              62.15758101622531, 
              40.99571505975954
            ], 
            [
              62.153498560625195, 
              40.998893107027364
            ], 
            [
              62.03402266662136, 
              41.14273450834613
            ], 
            [
              61.86380047541473, 
              41.28456040695329
            ], 
            [
              61.804837674478364, 
              41.31858936335588
            ], 
            [
              61.759672489059135, 
              41.339337499467256
            ], 
            [
              61.7113033149172, 
              41.354840331861155
            ], 
            [
              61.52025555284673, 
              41.38956691540511
            ], 
            [
              61.46609865666248, 
              41.389670283023065
            ], 
            [
              61.446409955882615, 
              41.38628553455591
            ], 
            [
              61.42821983219422, 
              41.37943835127949
            ], 
            [
              61.41287193405679, 
              41.37023995215909
            ], 
            [
              61.39690390130447, 
              41.3557963443851
            ], 
            [
              61.3571647406836, 
              41.29815133066399
            ], 
            [
              61.33964646121418, 
              41.28807452308272
            ], 
            [
              61.31422161338845, 
              41.2862398757705
            ], 
            [
              61.290450472959336, 
              41.293242088958074
            ], 
            [
              61.28399090851334, 
              41.296161776043945
            ], 
            [
              61.26874638123441, 
              41.30187208602924
            ], 
            [
              61.256912444982625, 
              41.33104333044599
            ], 
            [
              61.24420008577509, 
              41.34553869912753
            ], 
            [
              61.19112835092601, 
              41.39000615213874
            ], 
            [
              61.17226649494222, 
              41.39835202282558
            ], 
            [
              61.114388855860405, 
              41.40677517516496
            ], 
            [
              61.09180626452783, 
              41.41359649202207
            ], 
            [
              61.060955430023455, 
              41.43462878638832
            ], 
            [
              61.0250402943231, 
              41.465066158314066
            ], 
            [
              61.013309746626064, 
              41.47080224970987
            ], 
            [
              61.00080407268203, 
              41.474807243004
            ], 
            [
              60.97537925105555, 
              41.47881211539438
            ], 
            [
              60.738494508271444, 
              41.63952588742217
            ], 
            [
              60.70609337694757, 
              41.66714691389373
            ], 
            [
              60.68030682458821, 
              41.70158922062789
            ], 
            [
              60.66330531156436, 
              41.74042415840449
            ], 
            [
              60.65198813241483, 
              41.75688298104833
            ], 
            [
              60.63622683646981, 
              41.76365264261938
            ], 
            [
              60.588271132851546, 
              41.76478959906137
            ], 
            [
              60.56734217087558, 
              41.76876866324224
            ], 
            [
              60.54997885606178, 
              41.777321011149525
            ], 
            [
              60.535922893485726, 
              41.79073112730624
            ], 
            [
              60.5079142511676, 
              41.82845487467947
            ], 
            [
              60.496907155604234, 
              41.85403466337377
            ], 
            [
              60.46988042938908, 
              41.88509234222211
            ], 
            [
              60.46181887733352, 
              41.90085356929939
            ], 
            [
              60.46243899365622, 
              41.94599293200634
            ], 
            [
              60.458976681831885, 
              41.9666376936752
            ], 
            [
              60.444765664167086, 
              41.97531933878935
            ], 
            [
              60.395311331977474, 
              41.97935013755805
            ], 
            [
              60.34513349161485, 
              41.98896188167472
            ], 
            [
              60.33443648062125, 
              41.99325105867902
            ], 
            [
              60.31309410494147, 
              42.00557585713563
            ], 
            [
              60.29686773056858, 
              42.00343136281813
            ], 
            [
              60.290976576551174, 
              42.000847420262744
            ], 
            [
              60.2719079966812, 
              41.988290117282936
            ], 
            [
              60.22085165266392, 
              41.96152164031561
            ], 
            [
              60.20023279413487, 
              41.95506219878364
            ], 
            [
              60.17305097275297, 
              41.95428699856602
            ], 
            [
              60.15739301332507, 
              41.95196155684081
            ], 
            [
              60.150571734679794, 
              41.9479308268609
            ], 
            [
              60.14762615626647, 
              41.943357394885915
            ], 
            [
              60.14917648176237, 
              41.938887482764294
            ], 
            [
              60.151191823047505, 
              41.93439151357105
            ], 
            [
              60.162819023144124, 
              41.91738997678406
            ], 
            [
              60.1648344333903, 
              41.90633130595877
            ], 
            [
              60.152897148285284, 
              41.884007000956586
            ], 
            [
              60.14261741065074, 
              41.875448148953375
            ], 
            [
              60.14114410031078, 
              41.874221436568234
            ], 
            [
              60.133452739778775, 
              41.88301906025397
            ], 
            [
              60.11822150169464, 
              41.900441053614045
            ], 
            [
              60.088765930834036, 
              41.91935461593716
            ], 
            [
              60.03185996691004, 
              41.93542750074089
            ], 
            [
              59.98691616121803, 
              41.94812185526696
            ], 
            [
              59.983656060647476, 
              41.94904270727828
            ], 
            [
              59.96623333777213, 
              41.94857416348295
            ], 
            [
              59.93177290630015, 
              41.94764739485637
            ], 
            [
              59.91751023063623, 
              41.952427524365746
            ], 
            [
              59.906451459066695, 
              41.96661265725152
            ], 
            [
              59.908001748947754, 
              41.97981597884198
            ], 
            [
              59.919267216539865, 
              41.989660353718186
            ], 
            [
              59.93694056622253, 
              41.993484440979444
            ], 
            [
              59.93725061721562, 
              41.99340689977389
            ], 
            [
              59.93756067521562, 
              41.99340689977389
            ], 
            [
              59.937870733215625, 
              41.99340689977389
            ], 
            [
              59.99719526809653, 
              42.01061512122825
            ], 
            [
              59.99409468545653, 
              42.05009592636322
            ], 
            [
              59.97445763265941, 
              42.09924018690899
            ], 
            [
              59.97930701942725, 
              42.12367784450079
            ], 
            [
              59.98365603652169, 
              42.14559394554512
            ], 
            [
              60.000089176400536, 
              42.154508232209224
            ], 
            [
              60.02055303835968, 
              42.160786900053814
            ], 
            [
              60.03698611646341, 
              42.16970100641324
            ], 
            [
              60.04039674651295, 
              42.18646996465114
            ], 
            [
              60.028201147807515, 
              42.199518382325984
            ], 
            [
              60.013068045883564, 
              42.20622345024114
            ], 
            [
              60.005050090555976, 
              42.20977610466472
            ], 
            [
              59.995532828196424, 
              42.212554698539336
            ], 
            [
              59.98825443003429, 
              42.214679757363236
            ], 
            [
              59.960711693909275, 
              42.22272099780867
            ], 
            [
              59.92567506969694, 
              42.24628544120009
            ], 
            [
              59.89787317755374, 
              42.27853162159889
            ], 
            [
              59.89626458169865, 
              42.279842235214716
            ], 
            [
              59.893506316901245, 
              42.282089508494465
            ], 
            [
              59.89296019412777, 
              42.28253437903711
            ], 
            [
              59.86635054897156, 
              42.30421479488165
            ], 
            [
              59.820978622992634, 
              42.30798711707394
            ], 
            [
              59.77633018753121, 
              42.303956363640395
            ], 
            [
              59.68951379798777, 
              42.309795849963045
            ], 
            [
              59.55084400920627, 
              42.29394537143619
            ], 
            [
              59.53336041487232, 
              42.29194705434469
            ], 
            [
              59.5288618914644, 
              42.291432786240414
            ], 
            [
              59.51873184914776, 
              42.29027488785624
            ], 
            [
              59.51654998073353, 
              42.29002557414015
            ], 
            [
              59.4781571829012, 
              42.28563709666277
            ], 
            [
              59.42648076855051, 
              42.286774030878554
            ], 
            [
              59.401469343947106, 
              42.29390528658141
            ], 
            [
              59.36157516692823, 
              42.32578973297784
            ], 
            [
              59.338114065454995, 
              42.33181002952721
            ], 
            [
              59.287161095351614, 
              42.33594412009637
            ], 
            [
              59.25842898056854, 
              42.34754542442745
            ], 
            [
              59.24519981940564, 
              42.36534797405472
            ], 
            [
              59.23331427425708, 
              42.44172584201143
            ], 
            [
              59.22380576741266, 
              42.46087183207985
            ], 
            [
              59.20964645699051, 
              42.47771844406979
            ], 
            [
              59.14608441674983, 
              42.52675929315761
            ], 
            [
              59.145189426808464, 
              42.52717704567976
            ], 
            [
              59.12200320711303, 
              42.537998938290315
            ], 
            [
              59.096475082197905, 
              42.53598365778625
            ], 
            [
              59.06743289245044, 
              42.52557075125437
            ], 
            [
              59.06474922378061, 
              42.525027371055565
            ], 
            [
              59.03859746606365, 
              42.51973138334965
            ], 
            [
              59.00924522682348, 
              42.518465234302326
            ], 
            [
              58.96470015145515, 
              42.52438221231041
            ], 
            [
              58.894420162239484, 
              42.54784318796574
            ], 
            [
              58.82744759180577, 
              42.59375795907819
            ], 
            [
              58.62164859311178, 
              42.77269523689817
            ], 
            [
              58.612266853562545, 
              42.78085225537902
            ], 
            [
              58.587875563520335, 
              42.791187500108386
            ], 
            [
              58.56937540893826, 
              42.768501574335716
            ], 
            [
              58.555732898679736, 
              42.68359739664796
            ], 
            [
              58.536943174468334, 
              42.65779587021765
            ], 
            [
              58.53454550172364, 
              42.654503388411236
            ], 
            [
              58.4932043417707, 
              42.64545997006981
            ], 
            [
              58.44183805690271, 
              42.64783735304777
            ], 
            [
              58.39057498173946, 
              42.65667385888629
            ], 
            [
              58.30214640006092, 
              42.68310079100971
            ], 
            [
              58.28267460243456, 
              42.68891998431873
            ], 
            [
              58.25828329000391, 
              42.689514155748505
            ], 
            [
              58.2395764876352, 
              42.68514769705375
            ], 
            [
              58.186556461902974, 
              42.66119565376811
            ], 
            [
              58.148832683611076, 
              42.64900006573365
            ], 
            [
              58.13064250416429, 
              42.638845419929325
            ], 
            [
              58.12134080299098, 
              42.62424699811067
            ], 
            [
              58.12702515648839, 
              42.60499736390688
            ], 
            [
              58.14573204743866, 
              42.59256924987687
            ], 
            [
              58.270995696638295, 
              42.54903178537885
            ], 
            [
              58.30623906069782, 
              42.52867138742243
            ], 
            [
              58.337038213394266, 
              42.49371227645735
            ], 
            [
              58.36370324663936, 
              42.447074278898434
            ], 
            [
              58.43791062805618, 
              42.3576999635959
            ], 
            [
              58.4782182108215, 
              42.3223273408449
            ], 
            [
              58.48958703177831, 
              42.31452421807686
            ], 
            [
              58.49413458056647, 
              42.305713455845236
            ], 
            [
              58.49062058785598, 
              42.29757443100183
            ], 
            [
              58.47821823970542, 
              42.29199336431283
            ], 
            [
              58.47373387441426, 
              42.29148866181563
            ], 
            [
              58.41393273215904, 
              42.28475858601091
            ], 
            [
              58.3983222852417, 
              42.28772269276308
            ], 
            [
              58.3976029870393, 
              42.28785919212041
            ], 
            [
              58.395676060521424, 
              42.29006079994369
            ], 
            [
              58.385820755461395, 
              42.30132088907605
            ], 
            [
              58.386130827208966, 
              42.316849699236734
            ], 
            [
              58.39150516659723, 
              42.33398040370153
            ], 
            [
              58.3949158177123, 
              42.35224804142967
            ], 
            [
              58.39009023634509, 
              42.36902783345514
            ], 
            [
              58.38278765776772, 
              42.38971207417035
            ], 
            [
              58.35894899847762, 
              42.41340703141927
            ], 
            [
              58.325049261067015, 
              42.431855524338246
            ], 
            [
              58.22582131178567, 
              42.46654917385625
            ], 
            [
              58.22428837041315, 
              42.46677382044341
            ], 
            [
              58.20381634565884, 
              42.46950178874847
            ], 
            [
              58.19423418282657, 
              42.46831095880511
            ], 
            [
              58.185729620799236, 
              42.46725394781572
            ], 
            [
              58.14945278002585, 
              42.45567847043578
            ], 
            [
              58.13478256813946, 
              42.45467388830577
            ], 
            [
              58.13322637744594, 
              42.454567415481705
            ], 
            [
              58.11720665637642, 
              42.46151781656234
            ], 
            [
              58.09436567003768, 
              42.486710067342315
            ], 
            [
              58.07989629022394, 
              42.49730380026317
            ], 
            [
              58.060879366394914, 
              42.50226474698573
            ], 
            [
              58.03824509148019, 
              42.50278151839286
            ], 
            [
              58.03733097724589, 
              42.50265498377861
            ], 
            [
              58.016024208550085, 
              42.49970672155243
            ], 
            [
              57.99773076365283, 
              42.49342807269188
            ], 
            [
              57.98729841916878, 
              42.48362869030856
            ], 
            [
              57.98708540572099, 
              42.48342864300239
            ], 
            [
              57.982269295841455, 
              42.477040236204424
            ], 
            [
              57.978300414619454, 
              42.47177561383094
            ], 
            [
              57.95277227986888, 
              42.450071580259184
            ], 
            [
              57.93933024655727, 
              42.445637755868816
            ], 
            [
              57.925590470640955, 
              42.44110570421915
            ], 
            [
              57.90864060655815, 
              42.43043453847639
            ], 
            [
              57.912361856957546, 
              42.4130969047307
            ], 
            [
              57.91432497075457, 
              42.4039502315155
            ], 
            [
              57.93571901816952, 
              42.369817962084056
            ], 
            [
              57.937476008831716, 
              42.35423749541341
            ], 
            [
              57.92879437274247, 
              42.3309314354245
            ], 
            [
              57.88807336203367, 
              42.26158172090748
            ], 
            [
              57.87370732848861, 
              42.24964450872
            ], 
            [
              57.86111758021951, 
              42.24661610905933
            ], 
            [
              57.84454803708642, 
              42.24263049832511
            ], 
            [
              57.83546677065014, 
              42.240446108362406
            ], 
            [
              57.82730185643032, 
              42.22737185480967
            ], 
            [
              57.83453656136482, 
              42.21163639300217
            ], 
            [
              57.84735235197503, 
              42.20091364463424
            ], 
            [
              57.85045290570907, 
              42.191430918370145
            ], 
            [
              57.8284387518946, 
              42.17954535856877
            ], 
            [
              57.80921510965542, 
              42.176393067805684
            ], 
            [
              57.80759820794054, 
              42.17644877844163
            ], 
            [
              57.75709688201505, 
              42.17818689273429
            ], 
            [
              57.74089890163297, 
              42.17874445681344
            ], 
            [
              57.72157191405658, 
              42.1753338079238
            ], 
            [
              57.66627813797708, 
              42.155102503483576
            ], 
            [
              57.64207711606668, 
              42.15149924207432
            ], 
            [
              57.63183395804079, 
              42.14997403429942
            ], 
            [
              57.6197693074414, 
              42.14817773175516
            ], 
            [
              57.47827926981966, 
              42.166522973264236
            ], 
            [
              57.382264468581056, 
              42.163629122955015
            ], 
            [
              57.28821333885753, 
              42.129419253696895
            ], 
            [
              57.20780482516165, 
              42.07055984184972
            ], 
            [
              57.1529244173516, 
              41.99374270942604
            ], 
            [
              57.15292445351546, 
              41.993484440979444
            ], 
            [
              57.11551070758135, 
              41.95209159071738
            ], 
            [
              57.074376281244376, 
              41.92878556736408
            ], 
            [
              57.05240205301201, 
              41.92108030037411
            ], 
            [
              57.021383831378984, 
              41.91020391439148
            ], 
            [
              56.97836144226023, 
              41.89511828132084
            ], 
            [
              56.95014613180784, 
              41.86605035809585
            ], 
            [
              56.94983604704989, 
              41.82749965678248
            ], 
            [
              56.96861146405769, 
              41.76046990611552
            ], 
            [
              56.97195358921159, 
              41.74853815797671
            ], 
            [
              56.97146063673453, 
              41.741056766056154
            ], 
            [
              56.969473084540404, 
              41.710891762518315
            ], 
            [
              56.9616182926973, 
              41.67872326853277
            ], 
            [
              56.960481415075975, 
              41.64720065543468
            ], 
            [
              56.9783614319836, 
              41.61146631194376
            ], 
            [
              57.0005822961491, 
              41.58402611999016
            ], 
            [
              57.01205448023321, 
              41.557826220844035
            ], 
            [
              57.01577517914414, 
              41.52899075862163
            ], 
            [
              57.01505173429495, 
              41.49364415994836
            ], 
            [
              57.019599236652624, 
              41.465945516445686
            ], 
            [
              57.03303511694157, 
              41.43824697529223
            ], 
            [
              57.03656250473835, 
              41.43372386411655
            ], 
            [
              57.05225872915453, 
              41.41359724988373
            ], 
            [
              57.07416953890199, 
              41.394993742775334
            ], 
            [
              57.0883289098545, 
              41.387294045459896
            ], 
            [
              57.10362513465156, 
              41.38160964004395
            ], 
            [
              57.122136565055435, 
              41.378193569983374
            ], 
            [
              57.15375126190501, 
              41.372359520934154
            ], 
            [
              57.158655051852605, 
              41.36954308042385
            ], 
            [
              57.16139937183122, 
              41.3679670139671
            ], 
            [
              57.15922894747511, 
              41.36114568164217
            ], 
            [
              57.14796351992309, 
              41.35106888841715
            ], 
            [
              57.12667280845097, 
              41.33959665171977
            ], 
            [
              57.08006068355465, 
              41.32202671934986
            ], 
            [
              57.06077804285624, 
              41.305318426175475
            ], 
            [
              57.06032029314056, 
              41.30492184284639
            ], 
            [
              57.02952111543779, 
              41.26259876763707
            ], 
            [
              57.02004264800771, 
              41.25844241673048
            ], 
            [
              57.01019412346789, 
              41.25412381313262
            ], 
            [
              56.919319021402224, 
              41.268411909745986
            ], 
            [
              56.887927706890146, 
              41.27334751615886
            ], 
            [
              56.79346317944785, 
              41.2883336502886
            ], 
            [
              56.5700142663104, 
              41.2974803154464
            ], 
            [
              56.53372129739025, 
              41.2989687338155
            ], 
            [
              56.326825001369436, 
              41.307453949906545
            ], 
            [
              56.140686479866865, 
              41.315153696633416
            ], 
            [
              56.031976978111736, 
              41.319550614486594
            ], 
            [
              56.00059848909076, 
              41.320819656564744
            ], 
            [
              56.00059759242086, 
              41.324351440608005
            ], 
            [
              56.000021472152966, 
              43.605727889128396
            ], 
            [
              55.99981825066101, 
              44.41045001874916
            ], 
            [
              55.999669999999135, 
              45.00021999999764
            ], 
            [
              56.69496796012021, 
              45.15834916188336
            ], 
            [
              56.97753682436205, 
              45.222612379978735
            ], 
            [
              57.515479617910756, 
              45.34495455820196
            ], 
            [
              57.60323287603351, 
              45.36389884238411
            ], 
            [
              57.72818648134, 
              45.390925594229785
            ], 
            [
              57.85324345277762, 
              45.417900706825165
            ], 
            [
              57.978300411220786, 
              45.44492745919939
            ], 
            [
              58.03607466877793, 
              45.45707143892908
            ], 
            [
              58.09384891166642, 
              45.46911202294434
            ], 
            [
              58.15162316532541, 
              45.48120431553755
            ], 
            [
              58.20960412458472, 
              45.49334828397518
            ], 
            [
              58.26975549574627, 
              45.505543933799274
            ], 
            [
              58.330010209680125, 
              45.51784290374715
            ], 
            [
              58.39026493031683, 
              45.530141896566775
            ], 
            [
              58.45041630664767, 
              45.542389237976955
            ], 
            [
              58.53144495286202, 
              45.55871899055473
            ], 
            [
              58.554906046105266, 
              45.55716868129716
            ], 
            [
              58.58219119853743, 
              45.54869373340541
            ], 
            [
              58.58876713429569, 
              45.545573927150514
            ], 
            [
              58.71157315314634, 
              45.487222862377656
            ], 
            [
              58.743111614896456, 
              45.472264308346205
            ], 
            [
              58.84047001697658, 
              45.42601391283675
            ], 
            [
              58.96790409455021, 
              45.3654491185485
            ], 
            [
              59.055132164798245, 
              45.32402317161965
            ], 
            [
              59.120349567055364, 
              45.29305042953291
            ], 
            [
              59.292432090265656, 
              45.21124664936101
            ], 
            [
              59.4793974193385, 
              45.122466530145154
            ], 
            [
              59.579377750388154, 
              45.07494956315888
            ], 
            [
              60.72676160905436, 
              44.47239221373841
            ], 
            [
              60.971401912190544, 
              44.343917304782934
            ], 
            [
              60.992637490852275, 
              44.33276544547351
            ], 
            [
              61.09038050619935, 
              44.281434939807525
            ], 
            [
              61.09314907997883, 
              44.25941852579514
            ], 
            [
              61.10286422673582, 
              44.23606071704298
            ], 
            [
              61.16167200208924, 
              44.168106195144055
            ], 
            [
              61.27639366010182, 
              44.078860935027606
            ], 
            [
              61.331170693984966, 
              44.03617624617785
            ], 
            [
              61.386051040130695, 
              43.99343976807535
            ], 
            [
              61.45612431512791, 
              43.935174682822414
            ], 
            [
              61.51348509387563, 
              43.88724462144721
            ], 
            [
              61.57105272961473, 
              43.83928914208894
            ], 
            [
              61.62851687240225, 
              43.79135911415809
            ], 
            [
              61.68598106636726, 
              43.74342922583457
            ], 
            [
              61.74210170967526, 
              43.696532970490765
            ], 
            [
              61.798325627123546, 
              43.64958481578057
            ], 
            [
              61.854549641753145, 
              43.60268860775392
            ], 
            [
              61.910670261509374, 
              43.55581812491248
            ], 
            [
              61.98570438044333, 
              43.49334115050722
            ], 
            [
              62.00596155150778, 
              43.4869849747783
            ], 
            [
              62.026115402005615, 
              43.48062889044109
            ], 
            [
              62.028320515327, 
              43.48092238200112
            ]]]}}]}